QIANFAN-33              
1 61566U 24185Q   25216.63810411  .00000165  00000+0  10973-3 0  9998
2 61566  88.9783  93.3334 0007999  26.6109 333.5477 13.96407536 51004
QIANFAN-34              
1 61567U 24185R   25216.63727374  .00000288  00000+0  17972-3 0  9996
2 61567  88.9759  93.0689 0007222  39.0224 321.1476 14.02158158 51129
QIANFAN-35              
1 61568U 24185S   25216.83415410  .00000501  00000+0  19752-3 0  9990
2 61568  88.9783  92.1477 0007237  12.5061 347.6312 14.27659711 51640
QIANFAN-36              
1 61569U 24185T   25216.60725529  .00000051  00000+0  56288-4 0  9997
2 61569  88.9773  94.6191 0008059  64.6772 295.5216 13.55544753 50293
QIANFAN-37              
1 62238U 24232B   25216.56426075  .00000057  00000+0  70240-4 0  9993
2 62238  88.9924  54.4946 0002592  94.4802 265.6645 13.50965120 81599
QIANFAN-38              
1 62239U 24232C   25216.88535275  .00000059  00000+0  72477-4 0  9998
2 62239  88.9931  54.3688 0013590 203.7267 156.3260 13.50953616 81697
QIANFAN-39              
1 62240U 24232D   25216.54263245  .00000164  00000+0  63596-4 0  9997
2 62240  88.9929  52.2203 0017555 138.8469 221.4051 14.25229823 82842
QIANFAN-40              
1 62241U 24232E   25216.54786925  .00000048  00000+0  55964-4 0  9994
2 62241  88.9958  53.9510 0012369 212.8329 147.2055 13.50959676 82011
